{"type": "FeatureCollection", "features": [ {"type": "Feature", "properties": {"norad_id": 66696, "name": "IRIDE FM2", "group": "last-30-days", "lat": 74.02423486047698, "lon": 40.22752807777504, "alt_km": 508.28348786069364, "timestamp": "2025-12-21T18:54:57.222669+00:00", "meta": {"OBJECT_NAME": "IRIDE FM2", "OBJECT_ID": "2025-276AG", "EPOCH": "2025-12-21T12:15:07.943040", "MEAN_MOTION": 15.17389261, "ECCENTRICITY": 0.00024784, "INCLINATION": 97.4397, "RA_OF_ASC_NODE": 67.1124, "ARG_OF_PERICENTER": 275.5585, "MEAN_ANOMALY": 84.5365, "EPHEMERIS_TYPE": 0, "CLASSIFICATION_TYPE": "U", "NORAD_CAT_ID": 66696, "ELEMENT_SET_NO": 999, "REV_AT_EPOCH": 345, "BSTAR": 0.00041742029, "MEAN_MOTION_DOT": 8.277e-05, "MEAN_MOTION_DDOT": 0}, "tle": {"line1": "1 66696U 25276AG  25355.51050860  .00008277  00000+0  41742-3 0  9994", "line2": "2 66696  97.4397  67.1124 0002478 275.5585  84.5365 15.17389261  3459"}}, "geometry": {"type": "Point", "coordinates": [40.22752807777504, 74.02423486047698]}}, {"type": "Feature", "properties": {"norad_id": 66697, "name": "IRIDE FM3", "group": "last-30-days", "lat": 41.91962594513828, "lon": -105.85055925369174, "alt_km": 507.4087471457833, "timestamp": "2025-12-21T18:54:57.222679+00:00", "meta": {"OBJECT_NAME": "IRIDE FM3", "OBJECT_ID": "2025-276AH", "EPOCH": "2025-12-21T10:24:09.139104", "MEAN_MOTION": 15.18135979, "ECCENTRICITY": 0.00011003, "INCLINATION": 97.4395, "RA_OF_ASC_NODE": 67.063, "ARG_OF_PERICENTER": 159.0128, "MEAN_ANOMALY": 201.1152, "EPHEMERIS_TYPE": 0, "CLASSIFICATION_TYPE": "U", "NORAD_CAT_ID": 66697, "ELEMENT_SET_NO": 999, "REV_AT_EPOCH": 344, "BSTAR": 0.00042666854, "MEAN_MOTION_DOT": 8.646e-05, "MEAN_MOTION_DDOT": 0}, "tle": {"line1": "1 66697U 25276AH  25355.43343911  .00008646  00000+0  42667-3 0  9995", "line2": "2 66697  97.4395  67.0630 0001100 159.0128 201.1152 15.18135979  3445"}}, "geometry": {"type": "Point", "coordinates": [-105.85055925369174, 41.91962594513828]}}, {"type": "Feature", "properties": {"norad_id": 66698, "name": "IRIDE FM4", "group": "last-30-days", "lat": 69.96464390567883, "lon": 46.38651345674296, "alt_km": 508.96868906441705, "timestamp": "2025-12-21T18:54:57.222691+00:00", "meta": {"OBJECT_NAME": "IRIDE FM4", "OBJECT_ID": "2025-276AJ", "EPOCH": "2025-12-21T07:31:23.797632", "MEAN_MOTION": 15.17313323, "ECCENTRICITY": 0.00026785, "INCLINATION": 97.4396, "RA_OF_ASC_NODE": 66.9179, "ARG_OF_PERICENTER": 267.6759, "MEAN_ANOMALY": 92.4168, "EPHEMERIS_TYPE": 0, "CLASSIFICATION_TYPE": "U", "NORAD_CAT_ID": 66698, "ELEMENT_SET_NO": 999, "REV_AT_EPOCH": 342, "BSTAR": 0.0004249182, "MEAN_MOTION_DOT": 8.409e-05, "MEAN_MOTION_DDOT": 0}, "tle": {"line1": "1 66698U 25276AJ  25355.31346988  .00008409  00000+0  42492-3 0  9993", "line2": "2 66698  97.4396  66.9179 0002678 267.6759  92.4168 15.17313323  3426"}}, "geometry": {"type": "Point", "coordinates": [46.38651345674296, 69.96464390567883]}}, {"type": "Feature", "properties": {"norad_id": 66699, "name": "IRIDE FM5", "group": "last-30-days", "lat": 70.70415926984856, "lon": 45.46084696754391, "alt_km": 510.3422608599958, "timestamp": "2025-12-21T18:54:57.222701+00:00", "meta": {"OBJECT_NAME": "IRIDE FM5", "OBJECT_ID": "2025-276AK", "EPOCH": "2025-12-21T12:16:04.408896", "MEAN_MOTION": 15.17328524, "ECCENTRICITY": 0.00048011, "INCLINATION": 97.444, "RA_OF_ASC_NODE": 67.1171, "ARG_OF_PERICENTER": 242.2933, "MEAN_ANOMALY": 117.7814, "EPHEMERIS_TYPE": 0, "CLASSIFICATION_TYPE": "U", "NORAD_CAT_ID": 66699, "ELEMENT_SET_NO": 999, "REV_AT_EPOCH": 345, "BSTAR": 0.00028484781, "MEAN_MOTION_DOT": 5.616e-05, "MEAN_MOTION_DDOT": 0}, "tle": {"line1": "1 66699U 25276AK  25355.51116214  .00005616  00000+0  28485-3 0  9996", "line2": "2 66699  97.4440  67.1171 0004801 242.2933 117.7814 15.17328524  3456"}}, "geometry": {"type": "Point", "coordinates": [45.46084696754391, 70.70415926984856]}}, {"type": "Feature", "properties": {"norad_id": 66700, "name": "IRIDE FM6", "group": "last-30-days", "lat": 38.74641719713649, "lon": -106.55538183951148, "alt_km": 507.4985228397172, "timestamp": "2025-12-21T18:54:57.222713+00:00", "meta": {"OBJECT_NAME": "IRIDE FM6", "OBJECT_ID": "2025-276AL", "EPOCH": "2025-12-21T10:23:19.273344", "MEAN_MOTION": 15.1818801, "ECCENTRICITY": 0.00015294, "INCLINATION": 97.4428, "RA_OF_ASC_NODE": 67.0733, "ARG_OF_PERICENTER": 167.052, "MEAN_ANOMALY": 193.0754, "EPHEMERIS_TYPE": 0, "CLASSIFICATION_TYPE": "U", "NORAD_CAT_ID": 66700, "ELEMENT_SET_NO": 999, "REV_AT_EPOCH": 344, "BSTAR": 0.00041791892, "MEAN_MOTION_DOT": 8.48e-05, "MEAN_MOTION_DDOT": 0}, "tle": {"line1": "1 66700U 25276AL  25355.43286196  .00008480  00000+0  41792-3 0  9995", "line2": "2 66700  97.4428  67.0733 0001529 167.0520 193.0754 15.18188010  3442"}}, "geometry": {"type": "Point", "coordinates": [-106.55538183951148, 38.74641719713649]}}, {"type": "Feature", "properties": {"norad_id": 66701, "name": "IRIDE FM7", "group": "last-30-days", "lat": 70.28614135231372, "lon": 46.00254532924935, "alt_km": 509.36982062176503, "timestamp": "2025-12-21T18:54:57.222723+00:00", "meta": {"OBJECT_NAME": "IRIDE FM7", "OBJECT_ID": "2025-276AM", "EPOCH": "2025-12-21T12:16:08.274432", "MEAN_MOTION": 15.17123308, "ECCENTRICITY": 0.00020409, "INCLINATION": 97.4408, "RA_OF_ASC_NODE": 67.1217, "ARG_OF_PERICENTER": 246.0122, "MEAN_ANOMALY": 114.0898, "EPHEMERIS_TYPE": 0, "CLASSIFICATION_TYPE": "U", "NORAD_CAT_ID": 66701, "ELEMENT_SET_NO": 999, "REV_AT_EPOCH": 345, "BSTAR": -0.0071120661, "MEAN_MOTION_DOT": -0.00138346, "MEAN_MOTION_DDOT": 0}, "tle": {"line1": "1 66701U 25276AM  25355.51120688 -.00138346  00000+0 -71121-2 0  9993", "line2": "2 66701  97.4408  67.1217 0002040 246.0122 114.0898 15.17123308  3455"}}, "geometry": {"type": "Point", "coordinates": [46.00254532924935, 70.28614135231372]}}, {"type": "Feature", "properties": {"norad_id": 66702, "name": "IRIDE FM8", "group": "last-30-days", "lat": 71.5874495965476, "lon": 44.27234872005367, "alt_km": 508.7704667116059, "timestamp": "2025-12-21T18:54:57.222733+00:00", "meta": {"OBJECT_NAME": "IRIDE FM8", "OBJECT_ID": "2025-276AN", "EPOCH": "2025-12-21T12:15:50.314464", "MEAN_MOTION": 15.17362321, "ECCENTRICITY": 0.00028095, "INCLINATION": 97.4405, "RA_OF_ASC_NODE": 67.1148, "ARG_OF_PERICENTER": 271.0756, "MEAN_ANOMALY": 89.0156, "EPHEMERIS_TYPE": 0, "CLASSIFICATION_TYPE": "U", "NORAD_CAT_ID": 66702, "ELEMENT_SET_NO": 999, "REV_AT_EPOCH": 345, "BSTAR": 0.00040971229, "MEAN_MOTION_DOT": 8.117e-05, "MEAN_MOTION_DDOT": 0}, "tle": {"line1": "1 66702U 25276AN  25355.51099901  .00008117  00000+0  40971-3 0  9997", "line2": "2 66702  97.4405  67.1148 0002809 271.0756  89.0156 15.17362321  3458"}}, "geometry": {"type": "Point", "coordinates": [44.27234872005367, 71.5874495965476]}}, {"type": "Feature", "properties": {"norad_id": 66703, "name": "PELICAN-6", "group": "last-30-days", "lat": 77.82793618599727, "lon": 30.094214893852083, "alt_km": 507.27129233699, "timestamp": "2025-12-21T18:54:57.222743+00:00", "meta": {"OBJECT_NAME": "PELICAN-6", "OBJECT_ID": "2025-276AP", "EPOCH": "2025-12-21T13:48:53.456544", "MEAN_MOTION": 15.17322005, "ECCENTRICITY": 9.03e-05, "INCLINATION": 97.4414, "RA_OF_ASC_NODE": 67.1831, "ARG_OF_PERICENTER": 251.8635, "MEAN_ANOMALY": 108.2501, "EPHEMERIS_TYPE": 0, "CLASSIFICATION_TYPE": "U", "NORAD_CAT_ID": 66703, "ELEMENT_SET_NO": 999, "REV_AT_EPOCH": 346, "BSTAR": 0.00021455991, "MEAN_MOTION_DOT": 4.212e-05, "MEAN_MOTION_DDOT": 0}, "tle": {"line1": "1 66703U 25276AP  25355.57561871  .00004212  00000+0  21456-3 0  9993", "line2": "2 66703  97.4414  67.1831 0000903 251.8635 108.2501 15.17322005  3467"}}, "geometry": {"type": "Point", "coordinates": [30.094214893852083, 77.82793618599727]}}, {"type": "Feature", "properties": {"norad_id": 66704, "name": "FLOCK 4H-1", "group": "last-30-days", "lat": 46.0451370586022, "lon": -104.80615022540465, "alt_km": 506.81104677591065, "timestamp": "2025-12-21T18:54:57.222753+00:00", "meta": {"OBJECT_NAME": "FLOCK 4H-1", "OBJECT_ID": "2025-276AQ", "EPOCH": "2025-12-21T10:25:13.651392", "MEAN_MOTION": 15.18059569, "ECCENTRICITY": 0.00017758, "INCLINATION": 97.439, "RA_OF_ASC_NODE": 67.0574, "ARG_OF_PERICENTER": 175.4041, "MEAN_ANOMALY": 184.721, "EPHEMERIS_TYPE": 0, "CLASSIFICATION_TYPE": "U", "NORAD_CAT_ID": 66704, "ELEMENT_SET_NO": 999, "REV_AT_EPOCH": 344, "BSTAR": 0.00037079655, "MEAN_MOTION_DOT": 7.487e-05, "MEAN_MOTION_DDOT": 0}, "tle": {"line1": "1 66704U 25276AQ  25355.43418578  .00007487  00000+0  37080-3 0  9991", "line2": "2 66704  97.4390  67.0574 0001775 175.4041 184.7210 15.18059569  3441"}}, "geometry": {"type": "Point", "coordinates": [-104.80615022540465, 46.0451370586022]}}, {"type": "Feature", "properties": {"norad_id": 66705, "name": "FLOCK 4H-2", "group": "last-30-days", "lat": 43.73012961336281, "lon": -105.41363541708404, "alt_km": 507.228728411239, "timestamp": "2025-12-21T18:54:57.222766+00:00", "meta": {"OBJECT_NAME": "FLOCK 4H-2", "OBJECT_ID": "2025-276AR", "EPOCH": "2025-12-21T10:24:37.666656", "MEAN_MOTION": 15.18111901, "ECCENTRICITY": 0.00011239, "INCLINATION": 97.4384, "RA_OF_ASC_NODE": 67.0582, "ARG_OF_PERICENTER": 163.8014, "MEAN_ANOMALY": 196.3256, "EPHEMERIS_TYPE": 0, "CLASSIFICATION_TYPE": "U", "NORAD_CAT_ID": 66705, "ELEMENT_SET_NO": 999, "REV_AT_EPOCH": 344, "BSTAR": 0.00042493283, "MEAN_MOTION_DOT": 8.604e-05, "MEAN_MOTION_DDOT": 0}, "tle": {"line1": "1 66705U 25276AR  25355.43376929  .00008604  00000+0  42493-3 0  9991", "line2": "2 66705  97.4384  67.0582 0001123 163.8014 196.3256 15.18111901  3440"}}, "geometry": {"type": "Point", "coordinates": [-105.41363541708404, 43.73012961336281]}}]}